"{\n    \"CCSDS_OMM_VERS\": \"2.0\",\n    \"COMMENT\": \"GENERATED VIA SPACE-TRACK.ORG API\",\n    \"CREATION_DATE\": \"2025-08-31T02:26:50\",\n    \"ORIGINATOR\": \"18 SPCS\",\n    \"OBJECT_NAME\": \"NAVSTAR 67 (USA 239)\",\n    \"OBJECT_ID\": \"2012-053A\",\n    \"CENTER_NAME\": \"EARTH\",\n    \"REF_FRAME\": \"TEME\",\n    \"TIME_SYSTEM\": \"UTC\",\n    \"MEAN_ELEMENT_THEORY\": \"SGP4\",\n    \"EPOCH\": \"2025-08-30T03:37:00.363360\",\n    \"MEAN_MOTION\": \"2.0056400346\",\n    \"ECCENTRICITY\": \"0.017059134\",\n    \"INCLINATION\": \"53.543093\",\n    \"RA_OF_ASC_NODE\": \"155.52243\",\n    \"ARG_OF_PERICENTER\": \"61.979555\",\n    \"MEAN_ANOMALY\": \"299.76469\",\n    \"EPHEMERIS_TYPE\": \"0\",\n    \"CLASSIFICATION_TYPE\": \"U\",\n    \"NORAD_CAT_ID\": \"38833\",\n    \"ELEMENT_SET_NO\": \"999\",\n    \"REV_AT_EPOCH\": \"9360\",\n    \"BSTAR\": \"0\",\n    \"MEAN_MOTION_DOT\": \"-0.000000092424\",\n    \"MEAN_MOTION_DDOT\": \"0\",\n    \"TLE_LINE0\": \"0 NAVSTAR 67 (USA 239)\",\n    \"TLE_LINE1\": \"1 38833U 12053A   25242.15069865 -.00000009  00000-0  00000-0 0  9991\",\n    \"TLE_LINE2\": \"2 38833  53.5431 155.5224 0170591  61.9796 299.7647  2.00564003 93605\",\n    \"SEMIMAJOR_AXIS\": \"26560.313\",\n    \"PERIOD\": \"717.975\",\n    \"APOAPSIS\": \"20635.273\",\n    \"PERIAPSIS\": \"19729.082\",\n    \"OBJECT_TYPE\": \"PAYLOAD\",\n    \"DECAYED\": \"0\"\n}"